<?xml version="1.0" encoding="UTF-8"?>
<gpx version="1.1" creator="salvaged from gpx.studio export"
     xmlns="http://www.topografix.com/GPX/1/1">
  <metadata><name>Higechaya Oiwake to Sanjo Ohashi</name></metadata>
  <trk><name>Higechaya Oiwake to Sanjo Ohashi</name><trkseg>
      <trkpt lat="34.991005" lon="135.836418"></trkpt>
      <trkpt lat="34.991025" lon="135.836347"></trkpt>
      <trkpt lat="34.991074" lon="135.836090"></trkpt>
      <trkpt lat="34.991130" lon="135.835679"></trkpt>
      <trkpt lat="34.991150" lon="135.835422"></trkpt>
      <trkpt lat="34.991162" lon="135.834214"></trkpt>
      <trkpt lat="34.991175" lon="135.833584"></trkpt>
      <trkpt lat="34.991153" lon="135.832854"></trkpt>
      <trkpt lat="34.991151" lon="135.832450"></trkpt>
      <trkpt lat="34.991203" lon="135.831268"></trkpt>
      <trkpt lat="34.991202" lon="135.831278"></trkpt>
      <trkpt lat="34.991238" lon="135.831275"></trkpt>
      <trkpt lat="34.991252" lon="135.831183"></trkpt>
      <trkpt lat="34.991306" lon="135.831189"></trkpt>
      <trkpt lat="34.991607" lon="135.831022"></trkpt>
      <trkpt lat="34.991570" lon="135.830915"></trkpt>
      <trkpt lat="34.991560" lon="135.830921"></trkpt>
      <trkpt lat="34.991294" lon="135.830197"></trkpt>
      <trkpt lat="34.991276" lon="135.830148"></trkpt>
      <trkpt lat="34.991293" lon="135.830044"></trkpt>
      <trkpt lat="34.991414" lon="135.828527"></trkpt>
      <trkpt lat="34.991404" lon="135.827688"></trkpt>
      <trkpt lat="34.991418" lon="135.827283"></trkpt>
      <trkpt lat="34.991449" lon="135.826863"></trkpt>
      <trkpt lat="34.991475" lon="135.826735"></trkpt>
      <trkpt lat="34.991508" lon="135.826383"></trkpt>
      <trkpt lat="34.991499" lon="135.825991"></trkpt>
      <trkpt lat="34.991470" lon="135.825630"></trkpt>
      <trkpt lat="34.991293" lon="135.824148"></trkpt>
      <trkpt lat="34.991263" lon="135.823729"></trkpt>
      <trkpt lat="34.991273" lon="135.822875"></trkpt>
      <trkpt lat="34.991320" lon="135.821798"></trkpt>
      <trkpt lat="34.991320" lon="135.821577"></trkpt>
      <trkpt lat="34.991334" lon="135.821212"></trkpt>
      <trkpt lat="34.991328" lon="135.820412"></trkpt>
      <trkpt lat="34.991307" lon="135.819573"></trkpt>
      <trkpt lat="34.991262" lon="135.819204"></trkpt>
      <trkpt lat="34.991238" lon="135.818657"></trkpt>
      <trkpt lat="34.991254" lon="135.818019"></trkpt>
      <trkpt lat="34.991238" lon="135.817194"></trkpt>
      <trkpt lat="34.991211" lon="135.816242"></trkpt>
      <trkpt lat="34.991212" lon="135.815696"></trkpt>
      <trkpt lat="34.991194" lon="135.815417"></trkpt>
      <trkpt lat="34.991193" lon="135.814745"></trkpt>
      <trkpt lat="34.991233" lon="135.813980"></trkpt>
      <trkpt lat="34.991240" lon="135.813405"></trkpt>
      <trkpt lat="34.991240" lon="135.813405"></trkpt>
      <trkpt lat="34.991230" lon="135.812544"></trkpt>
      <trkpt lat="34.991214" lon="135.812040"></trkpt>
      <trkpt lat="34.991205" lon="135.811484"></trkpt>
      <trkpt lat="34.991211" lon="135.811294"></trkpt>
      <trkpt lat="34.991261" lon="135.810802"></trkpt>
      <trkpt lat="34.991300" lon="135.810477"></trkpt>
      <trkpt lat="34.991332" lon="135.810370"></trkpt>
      <trkpt lat="34.991376" lon="135.810279"></trkpt>
      <trkpt lat="34.991515" lon="135.810075"></trkpt>
      <trkpt lat="34.991585" lon="135.809945"></trkpt>
      <trkpt lat="34.991624" lon="135.809805"></trkpt>
      <trkpt lat="34.991654" lon="135.809075"></trkpt>
      <trkpt lat="34.991733" lon="135.808243"></trkpt>
      <trkpt lat="34.991814" lon="135.807900"></trkpt>
      <trkpt lat="34.991814" lon="135.807900"></trkpt>
      <trkpt lat="34.991821" lon="135.807763"></trkpt>
      <trkpt lat="34.992223" lon="135.807303"></trkpt>
      <trkpt lat="34.992911" lon="135.806480"></trkpt>
      <trkpt lat="34.993087" lon="135.806285"></trkpt>
      <trkpt lat="34.993546" lon="135.805799"></trkpt>
      <trkpt lat="34.993543" lon="135.805405"></trkpt>
      <trkpt lat="34.993532" lon="135.805315"></trkpt>
      <trkpt lat="34.993532" lon="135.805315"></trkpt>
      <trkpt lat="34.993502" lon="135.805085"></trkpt>
      <trkpt lat="34.993518" lon="135.804369"></trkpt>
      <trkpt lat="34.993548" lon="135.804375"></trkpt>
      <trkpt lat="34.993601" lon="135.803937"></trkpt>
      <trkpt lat="34.993627" lon="135.803801"></trkpt>
      <trkpt lat="34.993786" lon="135.803249"></trkpt>
      <trkpt lat="34.993861" lon="135.802929"></trkpt>
      <trkpt lat="34.993993" lon="135.802294"></trkpt>
      <trkpt lat="34.994081" lon="135.801743"></trkpt>
      <trkpt lat="34.994081" lon="135.801743"></trkpt>
      <trkpt lat="34.994121" lon="135.801492"></trkpt>
      <trkpt lat="34.994243" lon="135.800871"></trkpt>
      <trkpt lat="34.994301" lon="135.800650"></trkpt>
      <trkpt lat="34.994399" lon="135.800159"></trkpt>
      <trkpt lat="34.994468" lon="135.799752"></trkpt>
      <trkpt lat="34.994489" lon="135.799620"></trkpt>
      <trkpt lat="34.994529" lon="135.799457"></trkpt>
      <trkpt lat="34.994693" lon="135.798965"></trkpt>
      <trkpt lat="34.994769" lon="135.798782"></trkpt>
      <trkpt lat="34.994914" lon="135.798593"></trkpt>
      <trkpt lat="34.995007" lon="135.798446"></trkpt>
      <trkpt lat="34.995153" lon="135.798334"></trkpt>
      <trkpt lat="34.995246" lon="135.798278"></trkpt>
      <trkpt lat="34.995686" lon="135.798060"></trkpt>
      <trkpt lat="34.995717" lon="135.798023"></trkpt>
      <trkpt lat="34.995717" lon="135.798023"></trkpt>
      <trkpt lat="34.995837" lon="135.797880"></trkpt>
      <trkpt lat="34.995946" lon="135.797683"></trkpt>
      <trkpt lat="34.996171" lon="135.797363"></trkpt>
      <trkpt lat="34.996171" lon="135.797363"></trkpt>
      <trkpt lat="34.996214" lon="135.797306"></trkpt>
      <trkpt lat="34.996292" lon="135.797246"></trkpt>
      <trkpt lat="34.996377" lon="135.797197"></trkpt>
      <trkpt lat="34.996431" lon="135.797179"></trkpt>
      <trkpt lat="34.996634" lon="135.797079"></trkpt>
      <trkpt lat="34.996924" lon="135.796821"></trkpt>
      <trkpt lat="34.997015" lon="135.796730"></trkpt>
      <trkpt lat="34.997015" lon="135.796730"></trkpt>
      <trkpt lat="34.997278" lon="135.796489"></trkpt>
      <trkpt lat="34.997487" lon="135.796232"></trkpt>
      <trkpt lat="34.997664" lon="135.795990"></trkpt>
      <trkpt lat="34.997783" lon="135.795792"></trkpt>
      <trkpt lat="34.997783" lon="135.795792"></trkpt>
      <trkpt lat="34.998169" lon="135.795158"></trkpt>
      <trkpt lat="34.998401" lon="135.794715"></trkpt>
      <trkpt lat="34.998575" lon="135.794288"></trkpt>
      <trkpt lat="34.998686" lon="135.794094"></trkpt>
      <trkpt lat="34.998839" lon="135.793859"></trkpt>
      <trkpt lat="34.998956" lon="135.793714"></trkpt>
      <trkpt lat="34.999088" lon="135.793613"></trkpt>
      <trkpt lat="34.999204" lon="135.793541"></trkpt>
      <trkpt lat="34.999229" lon="135.793536"></trkpt>
      <trkpt lat="34.999250" lon="135.793542"></trkpt>
      <trkpt lat="34.999287" lon="135.793494"></trkpt>
      <trkpt lat="34.999320" lon="135.793499"></trkpt>
      <trkpt lat="34.999375" lon="135.793447"></trkpt>
      <trkpt lat="34.999520" lon="135.793349"></trkpt>
      <trkpt lat="34.999639" lon="135.793316"></trkpt>
      <trkpt lat="34.999859" lon="135.793294"></trkpt>
      <trkpt lat="35.000088" lon="135.793290"></trkpt>
      <trkpt lat="35.000247" lon="135.793275"></trkpt>
      <trkpt lat="35.000473" lon="135.793208"></trkpt>
      <trkpt lat="35.000507" lon="135.793191"></trkpt>
      <trkpt lat="35.000655" lon="135.793116"></trkpt>
      <trkpt lat="35.000758" lon="135.793046"></trkpt>
      <trkpt lat="35.001192" lon="135.792695"></trkpt>
      <trkpt lat="35.001279" lon="135.792635"></trkpt>
      <trkpt lat="35.001279" lon="135.792635"></trkpt>
      <trkpt lat="35.001738" lon="135.792319"></trkpt>
      <trkpt lat="35.001765" lon="135.792292"></trkpt>
      <trkpt lat="35.002131" lon="135.792103"></trkpt>
      <trkpt lat="35.002613" lon="135.791870"></trkpt>
      <trkpt lat="35.002613" lon="135.791870"></trkpt>
      <trkpt lat="35.002732" lon="135.791812"></trkpt>
      <trkpt lat="35.002889" lon="135.791724"></trkpt>
      <trkpt lat="35.003053" lon="135.791604"></trkpt>
      <trkpt lat="35.003175" lon="135.791494"></trkpt>
      <trkpt lat="35.003296" lon="135.791358"></trkpt>
      <trkpt lat="35.003563" lon="135.791026"></trkpt>
      <trkpt lat="35.003644" lon="135.790946"></trkpt>
      <trkpt lat="35.003748" lon="135.790857"></trkpt>
      <trkpt lat="35.003905" lon="135.790772"></trkpt>
      <trkpt lat="35.004103" lon="135.790718"></trkpt>
      <trkpt lat="35.004383" lon="135.790719"></trkpt>
      <trkpt lat="35.004419" lon="135.790730"></trkpt>
      <trkpt lat="35.004419" lon="135.790730"></trkpt>
      <trkpt lat="35.004546" lon="135.790768"></trkpt>
      <trkpt lat="35.004934" lon="135.790909"></trkpt>
      <trkpt lat="35.005145" lon="135.790990"></trkpt>
      <trkpt lat="35.005302" lon="135.791020"></trkpt>
      <trkpt lat="35.005571" lon="135.791035"></trkpt>
      <trkpt lat="35.005645" lon="135.791016"></trkpt>
      <trkpt lat="35.005892" lon="135.790926"></trkpt>
      <trkpt lat="35.006102" lon="135.790817"></trkpt>
      <trkpt lat="35.006784" lon="135.790407"></trkpt>
      <trkpt lat="35.006974" lon="135.790309"></trkpt>
      <trkpt lat="35.007119" lon="135.790253"></trkpt>
      <trkpt lat="35.007283" lon="135.790216"></trkpt>
      <trkpt lat="35.007562" lon="135.790175"></trkpt>
      <trkpt lat="35.007774" lon="135.790179"></trkpt>
      <trkpt lat="35.008021" lon="135.790133"></trkpt>
      <trkpt lat="35.008021" lon="135.790133"></trkpt>
      <trkpt lat="35.008090" lon="135.790117"></trkpt>
      <trkpt lat="35.008258" lon="135.790038"></trkpt>
      <trkpt lat="35.008423" lon="135.789917"></trkpt>
      <trkpt lat="35.008597" lon="135.789792"></trkpt>
      <trkpt lat="35.008683" lon="135.789728"></trkpt>
      <trkpt lat="35.008844" lon="135.789582"></trkpt>
      <trkpt lat="35.008844" lon="135.789582"></trkpt>
      <trkpt lat="35.008878" lon="135.789551"></trkpt>
      <trkpt lat="35.008938" lon="135.789476"></trkpt>
      <trkpt lat="35.009030" lon="135.789300"></trkpt>
      <trkpt lat="35.009136" lon="135.788961"></trkpt>
      <trkpt lat="35.009187" lon="135.788741"></trkpt>
      <trkpt lat="35.009286" lon="135.787951"></trkpt>
      <trkpt lat="35.009331" lon="135.787477"></trkpt>
      <trkpt lat="35.009331" lon="135.787477"></trkpt>
      <trkpt lat="35.009453" lon="135.785924"></trkpt>
      <trkpt lat="35.009461" lon="135.785568"></trkpt>
      <trkpt lat="35.009445" lon="135.785365"></trkpt>
      <trkpt lat="35.009445" lon="135.785365"></trkpt>
      <trkpt lat="35.009421" lon="135.785070"></trkpt>
      <trkpt lat="35.009421" lon="135.785070"></trkpt>
      <trkpt lat="35.009407" lon="135.784901"></trkpt>
      <trkpt lat="35.009336" lon="135.784161"></trkpt>
      <trkpt lat="35.009309" lon="135.783805"></trkpt>
      <trkpt lat="35.009309" lon="135.783805"></trkpt>
      <trkpt lat="35.009283" lon="135.783455"></trkpt>
      <trkpt lat="35.009244" lon="135.783221"></trkpt>
      <trkpt lat="35.009235" lon="135.783122"></trkpt>
      <trkpt lat="35.009235" lon="135.783122"></trkpt>
      <trkpt lat="35.009219" lon="135.782942"></trkpt>
      <trkpt lat="35.009195" lon="135.782875"></trkpt>
      <trkpt lat="35.009146" lon="135.782833"></trkpt>
      <trkpt lat="35.009147" lon="135.782736"></trkpt>
      <trkpt lat="35.009171" lon="135.782720"></trkpt>
      <trkpt lat="35.009187" lon="135.782692"></trkpt>
      <trkpt lat="35.009177" lon="135.782500"></trkpt>
      <trkpt lat="35.009192" lon="135.781672"></trkpt>
      <trkpt lat="35.009192" lon="135.781672"></trkpt>
      <trkpt lat="35.009200" lon="135.781232"></trkpt>
      <trkpt lat="35.009217" lon="135.780958"></trkpt>
      <trkpt lat="35.009222" lon="135.780921"></trkpt>
      <trkpt lat="35.009222" lon="135.780921"></trkpt>
      <trkpt lat="35.009236" lon="135.780925"></trkpt>
      <trkpt lat="35.009222" lon="135.780921"></trkpt>
      <trkpt lat="35.009259" lon="135.780683"></trkpt>
      <trkpt lat="35.009389" lon="135.779496"></trkpt>
      <trkpt lat="35.009407" lon="135.778962"></trkpt>
      <trkpt lat="35.009397" lon="135.778284"></trkpt>
      <trkpt lat="35.009333" lon="135.778205"></trkpt>
      <trkpt lat="35.009345" lon="135.778012"></trkpt>
      <trkpt lat="35.009385" lon="135.777963"></trkpt>
      <trkpt lat="35.009397" lon="135.777902"></trkpt>
      <trkpt lat="35.009398" lon="135.777706"></trkpt>
      <trkpt lat="35.009398" lon="135.777706"></trkpt>
      <trkpt lat="35.009399" lon="135.777520"></trkpt>
      <trkpt lat="35.009369" lon="135.776245"></trkpt>
      <trkpt lat="35.009320" lon="135.775503"></trkpt>
      <trkpt lat="35.009304" lon="135.775273"></trkpt>
      <trkpt lat="35.009304" lon="135.775273"></trkpt>
      <trkpt lat="35.009272" lon="135.774744"></trkpt>
      <trkpt lat="35.009168" lon="135.773574"></trkpt>
      <trkpt lat="35.009147" lon="135.773474"></trkpt>
      <trkpt lat="35.009124" lon="135.773376"></trkpt>
      <trkpt lat="35.009075" lon="135.773263"></trkpt>
      <trkpt lat="35.009025" lon="135.772714"></trkpt>
  </trkseg></trk>
</gpx>
