<?xml version="1.0" encoding="UTF-8"?>
<gpx version="1.1" creator="Samwise — trimmed at the closest approach to the anchor">
<trk><name>Ejiri-juku to Outside Kusanagi Station (trimmed)</name><trkseg>
<trkpt lat="35.019686" lon="138.481535"></trkpt>
<trkpt lat="35.019678" lon="138.481563"></trkpt>
<trkpt lat="35.019481" lon="138.481475"></trkpt>
<trkpt lat="35.019262" lon="138.481378"></trkpt>
<trkpt lat="35.018893" lon="138.481197"></trkpt>
<trkpt lat="35.018896" lon="138.481191"></trkpt>
<trkpt lat="35.018896" lon="138.481191"></trkpt>
<trkpt lat="35.018893" lon="138.481197"></trkpt>
<trkpt lat="35.018180" lon="138.480804"></trkpt>
<trkpt lat="35.017412" lon="138.480453"></trkpt>
<trkpt lat="35.017397" lon="138.480408"></trkpt>
<trkpt lat="35.017397" lon="138.480408"></trkpt>
<trkpt lat="35.017011" lon="138.479229"></trkpt>
<trkpt lat="35.016860" lon="138.478740"></trkpt>
<trkpt lat="35.016860" lon="138.478740"></trkpt>
<trkpt lat="35.016657" lon="138.478194"></trkpt>
<trkpt lat="35.016306" lon="138.477136"></trkpt>
<trkpt lat="35.016079" lon="138.476478"></trkpt>
<trkpt lat="35.015860" lon="138.475885"></trkpt>
<trkpt lat="35.015326" lon="138.474378"></trkpt>
<trkpt lat="35.015057" lon="138.473674"></trkpt>
<trkpt lat="35.014691" lon="138.472676"></trkpt>
<trkpt lat="35.014505" lon="138.472170"></trkpt>
<trkpt lat="35.014153" lon="138.471146"></trkpt>
<trkpt lat="35.014153" lon="138.471146"></trkpt>
<trkpt lat="35.013803" lon="138.470130"></trkpt>
<trkpt lat="35.013643" lon="138.469643"></trkpt>
<trkpt lat="35.013395" lon="138.468971"></trkpt>
<trkpt lat="35.013395" lon="138.468971"></trkpt>
<trkpt lat="35.013322" lon="138.468786"></trkpt>
<trkpt lat="35.012849" lon="138.467462"></trkpt>
<trkpt lat="35.012845" lon="138.467465"></trkpt>
<trkpt lat="35.012845" lon="138.467465"></trkpt>
<trkpt lat="35.012849" lon="138.467462"></trkpt>
<trkpt lat="35.012528" lon="138.466365"></trkpt>
<trkpt lat="35.012526" lon="138.466358"></trkpt>
<trkpt lat="35.012356" lon="138.465844"></trkpt>
<trkpt lat="35.012114" lon="138.465069"></trkpt>
<trkpt lat="35.012100" lon="138.464960"></trkpt>
<trkpt lat="35.012084" lon="138.464910"></trkpt>
<trkpt lat="35.012084" lon="138.464910"></trkpt>
<trkpt lat="35.012069" lon="138.464860"></trkpt>
<trkpt lat="35.012006" lon="138.464768"></trkpt>
<trkpt lat="35.011887" lon="138.464644"></trkpt>
<trkpt lat="35.011834" lon="138.464566"></trkpt>
<trkpt lat="35.011390" lon="138.463740"></trkpt>
<trkpt lat="35.011361" lon="138.463678"></trkpt>
<trkpt lat="35.011233" lon="138.463411"></trkpt>
<trkpt lat="35.010909" lon="138.462621"></trkpt>
<trkpt lat="35.010867" lon="138.462479"></trkpt>
<trkpt lat="35.010838" lon="138.462340"></trkpt>
<trkpt lat="35.010838" lon="138.462340"></trkpt>
<trkpt lat="35.010729" lon="138.461597"></trkpt>
<trkpt lat="35.010687" lon="138.461448"></trkpt>
<trkpt lat="35.010539" lon="138.460925"></trkpt>
<trkpt lat="35.010448" lon="138.460571"></trkpt>
<trkpt lat="35.010417" lon="138.460413"></trkpt>
<trkpt lat="35.010412" lon="138.460292"></trkpt>
<trkpt lat="35.010412" lon="138.460292"></trkpt>
<trkpt lat="35.010423" lon="138.460118"></trkpt>
<trkpt lat="35.010452" lon="138.459922"></trkpt>
<trkpt lat="35.010513" lon="138.459744"></trkpt>
<trkpt lat="35.010739" lon="138.459300"></trkpt>
<trkpt lat="35.010892" lon="138.459015"></trkpt>
<trkpt lat="35.011027" lon="138.458733"></trkpt>
<trkpt lat="35.011096" lon="138.458522"></trkpt>
<trkpt lat="35.011096" lon="138.458522"></trkpt>
<trkpt lat="35.011159" lon="138.458133"></trkpt>
<trkpt lat="35.011156" lon="138.458012"></trkpt>
<trkpt lat="35.011127" lon="138.457839"></trkpt>
<trkpt lat="35.011095" lon="138.457740"></trkpt>
<trkpt lat="35.011054" lon="138.457669"></trkpt>
<trkpt lat="35.010984" lon="138.457545"></trkpt>
<trkpt lat="35.010900" lon="138.457427"></trkpt>
<trkpt lat="35.010761" lon="138.457274"></trkpt>
<trkpt lat="35.010668" lon="138.457157"></trkpt>
<trkpt lat="35.010456" lon="138.456928"></trkpt>
<trkpt lat="35.010464" lon="138.456917"></trkpt>
<trkpt lat="35.010456" lon="138.456928"></trkpt>
<trkpt lat="35.010266" lon="138.456731"></trkpt>
<trkpt lat="35.009865" lon="138.456356"></trkpt>
<trkpt lat="35.009677" lon="138.456195"></trkpt>
<trkpt lat="35.009386" lon="138.455978"></trkpt>
<trkpt lat="35.009386" lon="138.455978"></trkpt>
<trkpt lat="35.008309" lon="138.455066"></trkpt>
<trkpt lat="35.008105" lon="138.454907"></trkpt>
<trkpt lat="35.007823" lon="138.454652"></trkpt>
<trkpt lat="35.007191" lon="138.454133"></trkpt>
<trkpt lat="35.006992" lon="138.453980"></trkpt>
<trkpt lat="35.006992" lon="138.453980"></trkpt>
<trkpt lat="35.006697" lon="138.453764"></trkpt>
<trkpt lat="35.006235" lon="138.453501"></trkpt>
<trkpt lat="35.006066" lon="138.453387"></trkpt>
<trkpt lat="35.006052" lon="138.453367"></trkpt>
<trkpt lat="35.006052" lon="138.453367"></trkpt>
<trkpt lat="35.005784" lon="138.452990"></trkpt>
<trkpt lat="35.004970" lon="138.451875"></trkpt>
<trkpt lat="35.004711" lon="138.451509"></trkpt>
<trkpt lat="35.004671" lon="138.451450"></trkpt>
<trkpt lat="35.004296" lon="138.450902"></trkpt>
<trkpt lat="35.004087" lon="138.450572"></trkpt>
<trkpt lat="35.003994" lon="138.450386"></trkpt>
<trkpt lat="35.003997" lon="138.450383"></trkpt>
<trkpt lat="35.003994" lon="138.450386"></trkpt>
<trkpt lat="35.003936" lon="138.450271"></trkpt>
<trkpt lat="35.003774" lon="138.449872"></trkpt>
<trkpt lat="35.003639" lon="138.449490"></trkpt>
<trkpt lat="35.003597" lon="138.449311"></trkpt>
<trkpt lat="35.003597" lon="138.449311"></trkpt>
<trkpt lat="35.003470" lon="138.448781"></trkpt>
<trkpt lat="35.003301" lon="138.447925"></trkpt>
<trkpt lat="35.003301" lon="138.447925"></trkpt>
<trkpt lat="35.003172" lon="138.447291"></trkpt>
<trkpt lat="35.003052" lon="138.446833"></trkpt>
<trkpt lat="35.003052" lon="138.446833"></trkpt>
<trkpt lat="35.003035" lon="138.446778"></trkpt>
<trkpt lat="35.002939" lon="138.446847"></trkpt>
<trkpt lat="35.002666" lon="138.447028"></trkpt>
<trkpt lat="35.002665" lon="138.447029"></trkpt>
<trkpt lat="35.002137" lon="138.446032"></trkpt>
<trkpt lat="35.001819" lon="138.445406"></trkpt>
<trkpt lat="35.001587" lon="138.444949"></trkpt>
<trkpt lat="35.001157" lon="138.444373"></trkpt>
<trkpt lat="35.001157" lon="138.444373"></trkpt>
<trkpt lat="35.000884" lon="138.443993"></trkpt>
<trkpt lat="35.001023" lon="138.443807"></trkpt>
</trkseg></trk></gpx>
