<?xml version="1.0" encoding="UTF-8"?>
<gpx version="1.1" creator="Samwise — Tokaido Field Companion" schemaLocation="http://www.topografix.com/GPX/1/1 http://www.topografix.com/GPX/1/1/gpx.xsd" xmlns="http://www.topografix.com/GPX/1/1" xmlns:xsi="http://www.w3.org/2001/XMLSchema-instance" xsi:schemaLocation="http://www.topografix.com/GPX/1/1 http://www.topografix.com/GPX/1/1/gpx.xsd http://www.garmin.com/xmlschemas/GpxExtensions/v3 http://www.garmin.com/xmlschemas/GpxExtensionsv3.xsd http://www.garmin.com/xmlschemas/TrackPointExtension/v1 http://www.garmin.com/xmlschemas/TrackPointExtensionv1.xsd http://www.garmin.com/xmlschemas/PowerExtension/v1 http://www.garmin.com/xmlschemas/PowerExtensionv1.xsd http://www.topografix.com/GPX/gpx_style/0/2 http://www.topografix.com/GPX/gpx_style/0/2/gpx_style.xsd" xmlns:gpxtpx="http://www.garmin.com/xmlschemas/TrackPointExtension/v1" xmlns:gpxx="http://www.garmin.com/xmlschemas/GpxExtensions/v3" xmlns:gpxpx="http://www.garmin.com/xmlschemas/PowerExtension/v1" xmlns:gpx_style="http://www.topografix.com/GPX/gpx_style/0/2">
  <metadata>
    <name>Section — Fuchu-juku to Abekawa Bridge</name>
    <desc>3.4 km, 24 points, mean spacing 148 m. Route km 183.8 to 187.2. Trace with road snapping on, then import back into Samwise as a replaced section. Waypoints are context only — do not export them back.</desc>
    <author>
      <name>gpx.studio</name>
      <link href="https://gpx.studio"/>
    </author>
    <time>2026-09-14T00:44:46.459Z</time>
  </metadata>
  <wpt lat="34.975329" lon="138.389652">
    <name>Fuchu-juku</name>
    <desc>府中宿 · post-station · station #19</desc>
  </wpt>
  <wpt lat="34.958031" lon="138.365754">
    <name>Abekawa Bridge</name>
    <desc>安倍川橋 · bridge</desc>
  </wpt>
  <wpt lat="34.972" lon="138.388">
    <name>Shizuoka Station</name>
    <desc>rail-bailout</desc>
  </wpt>
  <trk>
    <name>Section — Fuchu-juku to Abekawa Bridge</name>
    <trkseg>
      <trkpt lat="34.975319" lon="138.389657">
        <ele>19</ele>
      </trkpt>
      <trkpt lat="34.97484" lon="138.38823">
        <ele>19</ele>
      </trkpt>
      <trkpt lat="34.974718" lon="138.387832">
        <ele>19</ele>
      </trkpt>
      <trkpt lat="34.974688" lon="138.387709">
        <ele>19</ele>
      </trkpt>
      <trkpt lat="34.974649" lon="138.387455">
        <ele>19</ele>
      </trkpt>
      <trkpt lat="34.974647" lon="138.38736">
        <ele>19</ele>
      </trkpt>
      <trkpt lat="34.974645" lon="138.387238">
        <ele>19</ele>
      </trkpt>
      <trkpt lat="34.974663" lon="138.386937">
        <ele>19</ele>
      </trkpt>
      <trkpt lat="34.974817" lon="138.385926">
        <ele>18.38</ele>
      </trkpt>
      <trkpt lat="34.974868" lon="138.385692">
        <ele>19.7</ele>
      </trkpt>
      <trkpt lat="34.974828" lon="138.385516">
        <ele>19.42</ele>
      </trkpt>
      <trkpt lat="34.974873" lon="138.385554">
        <ele>19.49</ele>
      </trkpt>
      <trkpt lat="34.974876" lon="138.385549"/>
      <trkpt lat="34.973663" lon="138.384723"/>
      <trkpt lat="34.974489" lon="138.382781"/>
      <trkpt lat="34.97492" lon="138.38174"/>
      <trkpt lat="34.972459" lon="138.380173"/>
      <trkpt lat="34.971645" lon="138.379669"/>
      <trkpt lat="34.972472" lon="138.377647"/>
      <trkpt lat="34.97247" lon="138.377646">
        <ele>21</ele>
      </trkpt>
      <trkpt lat="34.972463" lon="138.377664">
        <ele>21</ele>
      </trkpt>
      <trkpt lat="34.972123" lon="138.377462">
        <ele>21</ele>
      </trkpt>
      <trkpt lat="34.971849" lon="138.377284">
        <ele>21</ele>
      </trkpt>
      <trkpt lat="34.970736" lon="138.376564">
        <ele>20</ele>
      </trkpt>
      <trkpt lat="34.969897" lon="138.376008">
        <ele>20</ele>
      </trkpt>
      <trkpt lat="34.96842" lon="138.375059">
        <ele>19</ele>
      </trkpt>
      <trkpt lat="34.966922" lon="138.374081">
        <ele>19</ele>
      </trkpt>
      <trkpt lat="34.965727" lon="138.373228">
        <ele>18.62</ele>
      </trkpt>
      <trkpt lat="34.964252" lon="138.372124">
        <ele>18.27</ele>
      </trkpt>
      <trkpt lat="34.964256" lon="138.372116"/>
      <trkpt lat="34.964252" lon="138.372124">
        <ele>18.27</ele>
      </trkpt>
      <trkpt lat="34.963776" lon="138.371674">
        <ele>18.01</ele>
      </trkpt>
      <trkpt lat="34.963408" lon="138.371255">
        <ele>18</ele>
      </trkpt>
      <trkpt lat="34.963336" lon="138.37109">
        <ele>18</ele>
      </trkpt>
      <trkpt lat="34.963125" lon="138.370838">
        <ele>18</ele>
      </trkpt>
      <trkpt lat="34.96294" lon="138.370661">
        <ele>18</ele>
      </trkpt>
      <trkpt lat="34.962424" lon="138.370127">
        <ele>18.54</ele>
      </trkpt>
      <trkpt lat="34.962157" lon="138.369788">
        <ele>19.48</ele>
      </trkpt>
      <trkpt lat="34.962012" lon="138.369701">
        <ele>20.51</ele>
      </trkpt>
      <trkpt lat="34.961747" lon="138.369506">
        <ele>21.72</ele>
      </trkpt>
      <trkpt lat="34.961706" lon="138.369468">
        <ele>21.92</ele>
      </trkpt>
      <trkpt lat="34.961634" lon="138.369365">
        <ele>21.67</ele>
      </trkpt>
      <trkpt lat="34.958667" lon="138.36641">
        <ele>21.51</ele>
      </trkpt>
      <trkpt lat="34.958029" lon="138.365757">
        <ele>21.58</ele>
      </trkpt>
    </trkseg>
  </trk>
</gpx>
