<?xml version="1.0" encoding="UTF-8"?>
<gpx version="1.1" creator="Samwise — Tokaido Field Companion" schemaLocation="http://www.topografix.com/GPX/1/1 http://www.topografix.com/GPX/1/1/gpx.xsd" xmlns="http://www.topografix.com/GPX/1/1" xmlns:xsi="http://www.w3.org/2001/XMLSchema-instance" xsi:schemaLocation="http://www.topografix.com/GPX/1/1 http://www.topografix.com/GPX/1/1/gpx.xsd http://www.garmin.com/xmlschemas/GpxExtensions/v3 http://www.garmin.com/xmlschemas/GpxExtensionsv3.xsd http://www.garmin.com/xmlschemas/TrackPointExtension/v1 http://www.garmin.com/xmlschemas/TrackPointExtensionv1.xsd http://www.garmin.com/xmlschemas/PowerExtension/v1 http://www.garmin.com/xmlschemas/PowerExtensionv1.xsd http://www.topografix.com/GPX/gpx_style/0/2 http://www.topografix.com/GPX/gpx_style/0/2/gpx_style.xsd" xmlns:gpxtpx="http://www.garmin.com/xmlschemas/TrackPointExtension/v1" xmlns:gpxx="http://www.garmin.com/xmlschemas/GpxExtensions/v3" xmlns:gpxpx="http://www.garmin.com/xmlschemas/PowerExtension/v1" xmlns:gpx_style="http://www.topografix.com/GPX/gpx_style/0/2">
  <metadata>
    <name>Section — Futagawa-juku to Iwaya Ryokuchi entrance</name>
    <desc>1.8 km, 15 points, mean spacing 132 m. Route km 300.8 to 302.7. Trace with road snapping on, then import back into Samwise as a replaced section. Waypoints are context only — do not export them back.</desc>
    <author>
      <name>gpx.studio</name>
      <link href="https://gpx.studio"/>
    </author>
    <time>2026-09-14T03:45:27.087Z</time>
  </metadata>
  <wpt lat="34.72385" lon="137.450037">
    <name>Futagawa-juku</name>
    <desc>二川宿 · post-station · station #33</desc>
  </wpt>
  <wpt lat="34.730728" lon="137.433729">
    <name>Iwaya Ryokuchi entrance</name>
    <desc>岩屋緑地入口 · landmark</desc>
  </wpt>
  <trk>
    <name>Section — Futagawa-juku to Iwaya Ryokuchi entrance</name>
    <trkseg>
      <trkpt lat="34.723854" lon="137.450039">
        <ele>24</ele>
      </trkpt>
      <trkpt lat="34.724154" lon="137.449054">
        <ele>23</ele>
      </trkpt>
      <trkpt lat="34.724253" lon="137.448881">
        <ele>23</ele>
      </trkpt>
      <trkpt lat="34.724524" lon="137.447873">
        <ele>22.01</ele>
      </trkpt>
      <trkpt lat="34.724692" lon="137.447291">
        <ele>22</ele>
      </trkpt>
      <trkpt lat="34.725118" lon="137.445736">
        <ele>20</ele>
      </trkpt>
      <trkpt lat="34.725181" lon="137.445478">
        <ele>20</ele>
      </trkpt>
      <trkpt lat="34.725306" lon="137.445085">
        <ele>19.94</ele>
      </trkpt>
      <trkpt lat="34.725363" lon="137.444823">
        <ele>19.99</ele>
      </trkpt>
      <trkpt lat="34.725374" lon="137.444772">
        <ele>20</ele>
      </trkpt>
      <trkpt lat="34.72567" lon="137.442216">
        <ele>18.33</ele>
      </trkpt>
      <trkpt lat="34.726029" lon="137.440115">
        <ele>18</ele>
      </trkpt>
      <trkpt lat="34.726175" lon="137.439219">
        <ele>17.21</ele>
      </trkpt>
      <trkpt lat="34.726361" lon="137.437961">
        <ele>17</ele>
      </trkpt>
      <trkpt lat="34.726569" lon="137.436997">
        <ele>17</ele>
      </trkpt>
      <trkpt lat="34.726716" lon="137.436379">
        <ele>18</ele>
      </trkpt>
      <trkpt lat="34.726716" lon="137.436379">
        <ele>18</ele>
      </trkpt>
      <trkpt lat="34.726795" lon="137.43619">
        <ele>18.19</ele>
      </trkpt>
      <trkpt lat="34.726829" lon="137.436131">
        <ele>18.41</ele>
      </trkpt>
      <trkpt lat="34.727224" lon="137.435549">
        <ele>20.2</ele>
      </trkpt>
      <trkpt lat="34.727282" lon="137.435449">
        <ele>20.69</ele>
      </trkpt>
      <trkpt lat="34.727398" lon="137.435">
        <ele>21.43</ele>
      </trkpt>
      <trkpt lat="34.727455" lon="137.434871">
        <ele>21.75</ele>
      </trkpt>
      <trkpt lat="34.727482" lon="137.434851">
        <ele>21.8</ele>
      </trkpt>
      <trkpt lat="34.727482" lon="137.434851">
        <ele>21.8</ele>
      </trkpt>
      <trkpt lat="34.727575" lon="137.434781">
        <ele>21.98</ele>
      </trkpt>
      <trkpt lat="34.727675" lon="137.434752">
        <ele>22</ele>
      </trkpt>
      <trkpt lat="34.727898" lon="137.434739">
        <ele>22.97</ele>
      </trkpt>
      <trkpt lat="34.72819" lon="137.434672">
        <ele>23.33</ele>
      </trkpt>
      <trkpt lat="34.729402" lon="137.433969">
        <ele>26.61</ele>
      </trkpt>
      <trkpt lat="34.729806" lon="137.433902">
        <ele>28.19</ele>
      </trkpt>
      <trkpt lat="34.73073" lon="137.433746">
        <ele>35.09</ele>
      </trkpt>
    </trkseg>
  </trk>
</gpx>
