<?xml version="1.0" encoding="UTF-8"?>
<gpx version="1.1" creator="Samwise — Tokaido Field Companion" schemaLocation="http://www.topografix.com/GPX/1/1 http://www.topografix.com/GPX/1/1/gpx.xsd" xmlns="http://www.topografix.com/GPX/1/1" xmlns:xsi="http://www.w3.org/2001/XMLSchema-instance" xsi:schemaLocation="http://www.topografix.com/GPX/1/1 http://www.topografix.com/GPX/1/1/gpx.xsd http://www.garmin.com/xmlschemas/GpxExtensions/v3 http://www.garmin.com/xmlschemas/GpxExtensionsv3.xsd http://www.garmin.com/xmlschemas/TrackPointExtension/v1 http://www.garmin.com/xmlschemas/TrackPointExtensionv1.xsd http://www.garmin.com/xmlschemas/PowerExtension/v1 http://www.garmin.com/xmlschemas/PowerExtensionv1.xsd http://www.topografix.com/GPX/gpx_style/0/2 http://www.topografix.com/GPX/gpx_style/0/2/gpx_style.xsd" xmlns:gpxtpx="http://www.garmin.com/xmlschemas/TrackPointExtension/v1" xmlns:gpxx="http://www.garmin.com/xmlschemas/GpxExtensions/v3" xmlns:gpxpx="http://www.garmin.com/xmlschemas/PowerExtension/v1" xmlns:gpx_style="http://www.topografix.com/GPX/gpx_style/0/2">
  <metadata>
    <name>Section — Tennocho Station to Hodogaya-juku</name>
    <desc>1.3 km, 9 points, mean spacing 163 m. Route km 33.3 to 34.6. Trace with road snapping on, then import back into Samwise as a replaced section. Waypoints are context only — do not export them back.</desc>
    <author>
      <name>gpx.studio</name>
      <link href="https://gpx.studio"/>
    </author>
    <time>2026-09-03T22:36:41.933Z</time>
  </metadata>
  <wpt lat="35.453906" lon="139.603196">
    <name>Tennocho Station</name>
    <desc>天王町駅 · rail</desc>
  </wpt>
  <wpt lat="35.444073" lon="139.595461">
    <name>Hodogaya-juku</name>
    <desc>保土ヶ谷宿 · post-station · station #4</desc>
  </wpt>
  <trk>
    <name>Section — Tennocho Station to Hodogaya-juku</name>
    <trkseg>
      <trkpt lat="35.45391" lon="139.603198">
        <ele>2</ele>
      </trkpt>
      <trkpt lat="35.453927" lon="139.603148">
        <ele>2</ele>
      </trkpt>
      <trkpt lat="35.453717" lon="139.603036">
        <ele>2</ele>
      </trkpt>
      <trkpt lat="35.453717" lon="139.603036">
        <ele>2</ele>
      </trkpt>
      <trkpt lat="35.453594" lon="139.602971">
        <ele>2</ele>
      </trkpt>
      <trkpt lat="35.453465" lon="139.602927">
        <ele>2</ele>
      </trkpt>
      <trkpt lat="35.453375" lon="139.602908">
        <ele>2</ele>
      </trkpt>
      <trkpt lat="35.453315" lon="139.602948">
        <ele>2</ele>
      </trkpt>
      <trkpt lat="35.453288" lon="139.60292">
        <ele>2</ele>
      </trkpt>
      <trkpt lat="35.452351884814405" lon="139.60215572239386">
        <ele>2</ele>
      </trkpt>
      <trkpt lat="35.452351" lon="139.602155">
        <ele>2</ele>
      </trkpt>
      <trkpt lat="35.452333" lon="139.602133">
        <ele>2</ele>
      </trkpt>
      <trkpt lat="35.45196571442023" lon="139.60183474640874">
        <ele>2.017700508270683</ele>
      </trkpt>
      <trkpt lat="35.451918" lon="139.601796">
        <ele>2.02</ele>
      </trkpt>
      <trkpt lat="35.45167103499564" lon="139.60158808992657">
        <ele>2.5828502702923983</ele>
      </trkpt>
      <trkpt lat="35.451671" lon="139.601587">
        <ele>2.58</ele>
      </trkpt>
      <trkpt lat="35.451488" lon="139.601434">
        <ele>3</ele>
      </trkpt>
      <trkpt lat="35.451473" lon="139.601399">
        <ele>3</ele>
      </trkpt>
      <trkpt lat="35.451401" lon="139.60134">
        <ele>3</ele>
      </trkpt>
      <trkpt lat="35.451365" lon="139.601329">
        <ele>3</ele>
      </trkpt>
      <trkpt lat="35.450588" lon="139.600697">
        <ele>3.37</ele>
      </trkpt>
      <trkpt lat="35.449297968484075" lon="139.5996475531398">
        <ele>3.892649161897136</ele>
      </trkpt>
      <trkpt lat="35.449298" lon="139.599648">
        <ele>4.11</ele>
      </trkpt>
      <trkpt lat="35.449033" lon="139.599432">
        <ele>4</ele>
      </trkpt>
      <trkpt lat="35.448966" lon="139.599365">
        <ele>4.09</ele>
      </trkpt>
      <trkpt lat="35.448923" lon="139.599352">
        <ele>4.16</ele>
      </trkpt>
      <trkpt lat="35.448882" lon="139.599317">
        <ele>4.18</ele>
      </trkpt>
      <trkpt lat="35.44819076115883" lon="139.5987245095647">
        <ele>4.860451003768067</ele>
      </trkpt>
      <trkpt lat="35.448191" lon="139.598725">
        <ele>4.95</ele>
      </trkpt>
      <trkpt lat="35.448049" lon="139.598603">
        <ele>5</ele>
      </trkpt>
      <trkpt lat="35.447987" lon="139.598562">
        <ele>5</ele>
      </trkpt>
      <trkpt lat="35.447837" lon="139.598495">
        <ele>5.06</ele>
      </trkpt>
      <trkpt lat="35.447786" lon="139.598457">
        <ele>5.02</ele>
      </trkpt>
      <trkpt lat="35.447648" lon="139.59843">
        <ele>5</ele>
      </trkpt>
      <trkpt lat="35.447636" lon="139.598456">
        <ele>5.01</ele>
      </trkpt>
      <trkpt lat="35.447503" lon="139.598347">
        <ele>5.44</ele>
      </trkpt>
      <trkpt lat="35.447503" lon="139.598347">
        <ele>5.44</ele>
      </trkpt>
      <trkpt lat="35.447154" lon="139.598059">
        <ele>6</ele>
      </trkpt>
      <trkpt lat="35.447154" lon="139.598059">
        <ele>6</ele>
      </trkpt>
      <trkpt lat="35.446224" lon="139.597289">
        <ele>6.98</ele>
      </trkpt>
      <trkpt lat="35.445443" lon="139.59663">
        <ele>6.06</ele>
      </trkpt>
      <trkpt lat="35.445443" lon="139.59663">
        <ele>6.06</ele>
      </trkpt>
      <trkpt lat="35.444773" lon="139.59606">
        <ele>7.16</ele>
      </trkpt>
      <trkpt lat="35.444429" lon="139.595784">
        <ele>7.07</ele>
      </trkpt>
      <trkpt lat="35.444066" lon="139.595488">
        <ele>7</ele>
      </trkpt>
      <trkpt lat="35.444071" lon="139.59546">
        <ele>7</ele>
      </trkpt>
    </trkseg>
  </trk>
</gpx>
